[{"OBJECT_NAME":"DONGPO 10","OBJECT_ID":"2022-167H","EPOCH":"2026-03-09T22:44:56.137344","MEAN_MOTION":15.322785,"ECCENTRICITY":0.00061655,"INCLINATION":97.685,"RA_OF_ASC_NODE":235.0962,"ARG_OF_PERICENTER":106.9526,"MEAN_ANOMALY":253.2392,"EPHEMERIS_TYPE":0,"CLASSIFICATION_TYPE":"U","NORAD_CAT_ID":54689,"ELEMENT_SET_NO":999,"REV_AT_EPOCH":18015,"BSTAR":0.00049390523,"MEAN_MOTION_DOT":0.00015333,"MEAN_MOTION_DDOT":0},{"OBJECT_NAME":"STARLINK-34241","OBJECT_ID":"2025-117AC","EPOCH":"2026-03-09T05:48:23.986656","MEAN_MOTION":15.30198378,"ECCENTRICITY":0.00011516,"INCLINATION":53.1615,"RA_OF_ASC_NODE":41.9927,"ARG_OF_PERICENTER":94.138,"MEAN_ANOMALY":265.9753,"EPHEMERIS_TYPE":0,"CLASSIFICATION_TYPE":"U","NORAD_CAT_ID":64229,"ELEMENT_SET_NO":999,"REV_AT_EPOCH":4448,"BSTAR":0.00049080677,"MEAN_MOTION_DOT":0.00014204,"MEAN_MOTION_DDOT":0}]
